STARLINK-36772          
1 67721U 26026A   26042.75317130 -.00000725  22934-5  00000+0 0  9999
2 67721  97.2800  95.5280 0003400 259.0800  81.2200 16.07750770    15
STARLINK-36796          
1 67722U 26026B   26054.82310227 -.00768215  00000+0 -40465-2 0  9993
2 67722  97.2751 108.7476 0000636 198.4489 161.6757 15.82502788  1941
STARLINK-36369          
1 67723U 26026C   26054.56925223 -.00074069  00000+0 -33580-3 0  9991
2 67723  97.2754 108.4814 0004178   5.4547 354.6768 15.83976849  1901
STARLINK-36752          
1 67724U 26026D   26054.56707093  .00617752  00000+0  24966-2 0  9992
2 67724  97.2755 108.4844 0003196 337.6676  22.4455 15.84804554  1905
STARLINK-36754          
1 67725U 26026E   26054.56706026 -.00338776  00000+0 -15609-2 0  9990
2 67725  97.2747 108.4845 0002832  56.2590 303.8950 15.84299833  1907
STARLINK-36755          
1 67726U 26026F   26054.75465788  .00400027  00000+0  14811-2 0  9990
2 67726  97.2734 108.6875 0010358 306.8241  53.2079 15.87092531  1938
STARLINK-36741          
1 67727U 26026G   26054.56507689 -.00157269  00000+0 -69184-3 0  9990
2 67727  97.2737 108.4857 0003344  13.6241 346.5119 15.84835181  1903
STARLINK-36757          
1 67728U 26026H   26054.75276603  .05069020  35916-1  20955-1 0  9998
2 67728  97.2730 108.6898 0022470 310.3274  49.6035 15.90146942  1936
STARLINK-36751          
1 67729U 26026J   26054.18316299 -.00676578  00000+0 -28759-2 0  9996
2 67729  97.2723 108.0877 0001163   5.8639 354.2646 15.86764897  1840
STARLINK-36747          
1 67730U 26026K   26054.37371826 -.00570220  00000+0 -25041-2 0  9994
2 67730  97.2728 108.2880 0001151 141.1555 218.9799 15.85851778  1873
STARLINK-36315          
1 67731U 26026L   26054.81355739  .00444647  00000+0  17986-2 0  9999
2 67731  97.2726 108.7602 0002549 317.2793  42.8279 15.85204942  1941
STARLINK-36260          
1 67732U 26026M   26054.74939891  .00385001  00000+0  15517-2 0  9995
2 67732  97.2723 108.6945 0005652   8.9557 351.1813 15.85413605  1935
