CCSDS_OMM_VERS = 2.0
CREATION_DATE  = 
ORIGINATOR     = 

OBJECT_NAME    = STARLINK-36772
OBJECT_ID      = 2026-026A
CENTER_NAME    = EARTH
REF_FRAME      = TEME
TIME_SYSTEM    = UTC
MEAN_ELEMENT_THEORY = SGP/SGP4

EPOCH          = 2026-02-11T18:04:34.000320
MEAN_MOTION    = 16.07750770
ECCENTRICITY   = .00034
INCLINATION    = 97.2800
RA_OF_ASC_NODE = 95.5280
ARG_OF_PERICENTER = 259.0800
MEAN_ANOMALY   = 81.2200

EPHEMERIS_TYPE = 0
CLASSIFICATION_TYPE = U
NORAD_CAT_ID   = 67721
ELEMENT_SET_NO = 999
REV_AT_EPOCH   = 1
BSTAR          = 0
MEAN_MOTION_DOT = -.725E-5
MEAN_MOTION_DDOT = .2293429E-5

CCSDS_OMM_VERS = 2.0
CREATION_DATE  = 
ORIGINATOR     = 

OBJECT_NAME    = STARLINK-36796
OBJECT_ID      = 2026-026B
CENTER_NAME    = EARTH
REF_FRAME      = TEME
TIME_SYSTEM    = UTC
MEAN_ELEMENT_THEORY = SGP/SGP4

EPOCH          = 2026-02-23T19:45:16.036128
MEAN_MOTION    = 15.82502788
ECCENTRICITY   = .0000636
INCLINATION    = 97.2751
RA_OF_ASC_NODE = 108.7476
ARG_OF_PERICENTER = 198.4489
MEAN_ANOMALY   = 161.6757

EPHEMERIS_TYPE = 0
CLASSIFICATION_TYPE = U
NORAD_CAT_ID   = 67722
ELEMENT_SET_NO = 999
REV_AT_EPOCH   = 194
BSTAR          = -.40465E-2
MEAN_MOTION_DOT = -.768215E-2
MEAN_MOTION_DDOT = 0

CCSDS_OMM_VERS = 2.0
CREATION_DATE  = 
ORIGINATOR     = 

OBJECT_NAME    = STARLINK-36369
OBJECT_ID      = 2026-026C
CENTER_NAME    = EARTH
REF_FRAME      = TEME
TIME_SYSTEM    = UTC
MEAN_ELEMENT_THEORY = SGP/SGP4

EPOCH          = 2026-02-23T13:39:43.392672
MEAN_MOTION    = 15.83976849
ECCENTRICITY   = .0004178
INCLINATION    = 97.2754
RA_OF_ASC_NODE = 108.4814
ARG_OF_PERICENTER = 5.4547
MEAN_ANOMALY   = 354.6768

EPHEMERIS_TYPE = 0
CLASSIFICATION_TYPE = U
NORAD_CAT_ID   = 67723
ELEMENT_SET_NO = 999
REV_AT_EPOCH   = 190
BSTAR          = -.3358E-3
MEAN_MOTION_DOT = -.74069E-3
MEAN_MOTION_DDOT = 0

CCSDS_OMM_VERS = 2.0
CREATION_DATE  = 
ORIGINATOR     = 

OBJECT_NAME    = STARLINK-36752
OBJECT_ID      = 2026-026D
CENTER_NAME    = EARTH
REF_FRAME      = TEME
TIME_SYSTEM    = UTC
MEAN_ELEMENT_THEORY = SGP/SGP4

EPOCH          = 2026-02-23T13:36:34.928352
MEAN_MOTION    = 15.84804554
ECCENTRICITY   = .0003196
INCLINATION    = 97.2755
RA_OF_ASC_NODE = 108.4844
ARG_OF_PERICENTER = 337.6676
MEAN_ANOMALY   = 22.4455

EPHEMERIS_TYPE = 0
CLASSIFICATION_TYPE = U
NORAD_CAT_ID   = 67724
ELEMENT_SET_NO = 999
REV_AT_EPOCH   = 190
BSTAR          = .24966E-2
MEAN_MOTION_DOT = .617752E-2
MEAN_MOTION_DDOT = 0

CCSDS_OMM_VERS = 2.0
CREATION_DATE  = 
ORIGINATOR     = 

OBJECT_NAME    = STARLINK-36754
OBJECT_ID      = 2026-026E
CENTER_NAME    = EARTH
REF_FRAME      = TEME
TIME_SYSTEM    = UTC
MEAN_ELEMENT_THEORY = SGP/SGP4

EPOCH          = 2026-02-23T13:36:34.006464
MEAN_MOTION    = 15.84299833
ECCENTRICITY   = .0002832
INCLINATION    = 97.2747
RA_OF_ASC_NODE = 108.4845
ARG_OF_PERICENTER = 56.2590
MEAN_ANOMALY   = 303.8950

EPHEMERIS_TYPE = 0
CLASSIFICATION_TYPE = U
NORAD_CAT_ID   = 67725
ELEMENT_SET_NO = 999
REV_AT_EPOCH   = 190
BSTAR          = -.15609E-2
MEAN_MOTION_DOT = -.338776E-2
MEAN_MOTION_DDOT = 0

CCSDS_OMM_VERS = 2.0
CREATION_DATE  = 
ORIGINATOR     = 

OBJECT_NAME    = STARLINK-36755
OBJECT_ID      = 2026-026F
CENTER_NAME    = EARTH
REF_FRAME      = TEME
TIME_SYSTEM    = UTC
MEAN_ELEMENT_THEORY = SGP/SGP4

EPOCH          = 2026-02-23T18:06:42.440832
MEAN_MOTION    = 15.87092531
ECCENTRICITY   = .0010358
INCLINATION    = 97.2734
RA_OF_ASC_NODE = 108.6875
ARG_OF_PERICENTER = 306.8241
MEAN_ANOMALY   = 53.2079

EPHEMERIS_TYPE = 0
CLASSIFICATION_TYPE = U
NORAD_CAT_ID   = 67726
ELEMENT_SET_NO = 999
REV_AT_EPOCH   = 193
BSTAR          = .14811E-2
MEAN_MOTION_DOT = .400027E-2
MEAN_MOTION_DDOT = 0

CCSDS_OMM_VERS = 2.0
CREATION_DATE  = 
ORIGINATOR     = 

OBJECT_NAME    = STARLINK-36741
OBJECT_ID      = 2026-026G
CENTER_NAME    = EARTH
REF_FRAME      = TEME
TIME_SYSTEM    = UTC
MEAN_ELEMENT_THEORY = SGP/SGP4

EPOCH          = 2026-02-23T13:33:42.643296
MEAN_MOTION    = 15.84835181
ECCENTRICITY   = .0003344
INCLINATION    = 97.2737
RA_OF_ASC_NODE = 108.4857
ARG_OF_PERICENTER = 13.6241
MEAN_ANOMALY   = 346.5119

EPHEMERIS_TYPE = 0
CLASSIFICATION_TYPE = U
NORAD_CAT_ID   = 67727
ELEMENT_SET_NO = 999
REV_AT_EPOCH   = 190
BSTAR          = -.69184E-3
MEAN_MOTION_DOT = -.157269E-2
MEAN_MOTION_DDOT = 0

CCSDS_OMM_VERS = 2.0
CREATION_DATE  = 
ORIGINATOR     = 

OBJECT_NAME    = STARLINK-36757
OBJECT_ID      = 2026-026H
CENTER_NAME    = EARTH
REF_FRAME      = TEME
TIME_SYSTEM    = UTC
MEAN_ELEMENT_THEORY = SGP/SGP4

EPOCH          = 2026-02-23T18:03:58.984992
MEAN_MOTION    = 15.90146942
ECCENTRICITY   = .002247
INCLINATION    = 97.2730
RA_OF_ASC_NODE = 108.6898
ARG_OF_PERICENTER = 310.3274
MEAN_ANOMALY   = 49.6035

EPHEMERIS_TYPE = 0
CLASSIFICATION_TYPE = U
NORAD_CAT_ID   = 67728
ELEMENT_SET_NO = 999
REV_AT_EPOCH   = 193
BSTAR          = .20955E-1
MEAN_MOTION_DOT = .506902E-1
MEAN_MOTION_DDOT = .35916E-1

CCSDS_OMM_VERS = 2.0
CREATION_DATE  = 
ORIGINATOR     = 

OBJECT_NAME    = STARLINK-36751
OBJECT_ID      = 2026-026J
CENTER_NAME    = EARTH
REF_FRAME      = TEME
TIME_SYSTEM    = UTC
MEAN_ELEMENT_THEORY = SGP/SGP4

EPOCH          = 2026-02-23T04:23:45.282336
MEAN_MOTION    = 15.86764897
ECCENTRICITY   = .0001163
INCLINATION    = 97.2723
RA_OF_ASC_NODE = 108.0877
ARG_OF_PERICENTER = 5.8639
MEAN_ANOMALY   = 354.2646

EPHEMERIS_TYPE = 0
CLASSIFICATION_TYPE = U
NORAD_CAT_ID   = 67729
ELEMENT_SET_NO = 999
REV_AT_EPOCH   = 184
BSTAR          = -.28759E-2
MEAN_MOTION_DOT = -.676578E-2
MEAN_MOTION_DDOT = 0

CCSDS_OMM_VERS = 2.0
CREATION_DATE  = 
ORIGINATOR     = 

OBJECT_NAME    = STARLINK-36747
OBJECT_ID      = 2026-026K
CENTER_NAME    = EARTH
REF_FRAME      = TEME
TIME_SYSTEM    = UTC
MEAN_ELEMENT_THEORY = SGP/SGP4

EPOCH          = 2026-02-23T08:58:09.257664
MEAN_MOTION    = 15.85851778
ECCENTRICITY   = .00011513
INCLINATION    = 97.2728
RA_OF_ASC_NODE = 108.2880
ARG_OF_PERICENTER = 141.1555
MEAN_ANOMALY   = 218.9799

EPHEMERIS_TYPE = 0
CLASSIFICATION_TYPE = U
NORAD_CAT_ID   = 67730
ELEMENT_SET_NO = 999
REV_AT_EPOCH   = 187
BSTAR          = -.25041038E-2
MEAN_MOTION_DOT = -.57022E-2
MEAN_MOTION_DDOT = 0

CCSDS_OMM_VERS = 2.0
CREATION_DATE  = 
ORIGINATOR     = 

OBJECT_NAME    = STARLINK-36315
OBJECT_ID      = 2026-026L
CENTER_NAME    = EARTH
REF_FRAME      = TEME
TIME_SYSTEM    = UTC
MEAN_ELEMENT_THEORY = SGP/SGP4

EPOCH          = 2026-02-23T19:31:31.358496
MEAN_MOTION    = 15.85204942
ECCENTRICITY   = .0002549
INCLINATION    = 97.2726
RA_OF_ASC_NODE = 108.7602
ARG_OF_PERICENTER = 317.2793
MEAN_ANOMALY   = 42.8279

EPHEMERIS_TYPE = 0
CLASSIFICATION_TYPE = U
NORAD_CAT_ID   = 67731
ELEMENT_SET_NO = 999
REV_AT_EPOCH   = 194
BSTAR          = .17986E-2
MEAN_MOTION_DOT = .444647E-2
MEAN_MOTION_DDOT = 0

CCSDS_OMM_VERS = 2.0
CREATION_DATE  = 
ORIGINATOR     = 

OBJECT_NAME    = STARLINK-36260
OBJECT_ID      = 2026-026M
CENTER_NAME    = EARTH
REF_FRAME      = TEME
TIME_SYSTEM    = UTC
MEAN_ELEMENT_THEORY = SGP/SGP4

EPOCH          = 2026-02-23T17:59:08.065824
MEAN_MOTION    = 15.85413605
ECCENTRICITY   = .0005652
INCLINATION    = 97.2723
RA_OF_ASC_NODE = 108.6945
ARG_OF_PERICENTER = 8.9557
MEAN_ANOMALY   = 351.1813

EPHEMERIS_TYPE = 0
CLASSIFICATION_TYPE = U
NORAD_CAT_ID   = 67732
ELEMENT_SET_NO = 999
REV_AT_EPOCH   = 193
BSTAR          = .15517E-2
MEAN_MOTION_DOT = .385001E-2
MEAN_MOTION_DDOT = 0

